#aV2010 11 21  0  0   .00000000      96 DD+AD WGS84 FIT  NGA
## 1611       .00000000   900.00000000 55521  .0000000000000
+   32     1  2  3  4  5  6  7  8  9 10 11 12 13 14 15 16 17
+         18 19 20 21 22 23 24 25 26 27 28 29 30 31 32  0  0
+          0  0  0  0  0  0  0  0  0  0  0  0  0  0  0  0  0
+          0  0  0  0  0  0  0  0  0  0  0  0  0  0  0  0  0
+          0  0  0  0  0  0  0  0  0  0  0  0  0  0  0  0  0
++         0  0  0  0  0  0  0  0  0  0  0  0  0  0  0  0  0
++         0  0  0  0  0  0  0  0  0  0  0  0  0  0  0  0  0
++         0  0  0  0  0  0  0  0  0  0  0  0  0  0  0  0  0
++         0  0  0  0  0  0  0  0  0  0  0  0  0  0  0  0  0
++         0  0  0  0  0  0  0  0  0  0  0  0  0  0  0  0  0
%c cc cc ccc ccc cccc cccc cccc cccc ccccc ccccc ccccc ccccc
%c cc cc ccc ccc cccc cccc cccc cccc ccccc ccccc ccccc ccccc
%f  0.0000000  0.000000000  0.00000000000  0.000000000000000
%f  0.0000000  0.000000000  0.00000000000  0.000000000000000
%i    0    0    0    0      0      0      0      0         0
%i    0    0    0    0      0      0      0      0         0
/*      NGA, ST. LOUIS,MO.                                  
/*   EPHEMERIS COMPUTED FROM  3 DAYS OF DATA                
/* CCCCCCCCCCCCCCCCCCCCCCCCCCCCCCCCCCCCCCCCCCCCCCCCCCCCCCCCC
/* CCCCCCCCCCCCCCCCCCCCCCCCCCCCCCCCCCCCCCCCCCCCCCCCCCCCCCCCC
*  2010 11 21 12 15   .00000000                                                 
P  1  26089.319389   5217.056250    968.055250   -184.258543                    
V  1    773.077663   2758.032248 -31779.997719      -.035716                    
P  2 -21014.756401   9104.772853 -13034.600532    303.794728                    
V  2   8922.923942 -14563.580699 -25020.427240       .024448                    
P  3  14734.872775  -5595.319611  20984.261778    638.216373                    
V  3  11378.799841  25268.655064   -903.642720       .050868                    
P  4 -18352.511566  -1236.664292 -19475.573105    225.207632                    
V  4  15614.292630 -18634.620481 -13313.323896       .096893                    
P  5 -23012.619180   3994.875163  12721.729965    -70.861761                    
V  5 -15238.050480  -5830.704629 -25609.792319      -.059962                    
P  6  16436.590999   -316.322723  21047.661371    413.540442                    
V  6   8495.034768  25035.098392  -6122.485889      -.120416                    
P  7  -1174.267202 -18021.986516  19407.087639      -.434230                    
V  7  17803.389456 -17120.621546 -15017.913891       .003166                    
P  8 -11220.625042  -9297.901941  22239.446286      6.938348                    
V  8  20744.160231 -18943.126373   2016.412533      -.000273                    
P  9 -14405.850258  21753.284643  -5463.505077     43.888795                    
V  9  -5637.488962   3330.218876  31244.639008       .023232                    
P 10 -25767.173504  -7183.127903   -933.308661    -58.452640                    
V 10   1594.798847  -2476.654521 -31285.038116      -.009455                    
P 11   8193.312290 -24469.902962  -5741.910484   -105.570869                    
V 11   7933.694621  -3725.060789  29073.408776      -.028679                    
P 12  -8998.103282  12806.465560 -21400.576976    -51.867689                    
V 12 -26334.421911  -7006.185449   7017.568584       .034867                    
P 13  -5126.326152 -26013.748709  -1167.752040    291.397365                    
V 13   2127.845634    868.546854 -32400.825364      -.011281                    
P 14  14388.962904  16542.814424 -14928.825261    109.102908                    
V 14   3229.349956  18923.217233  23693.086006       .032584                    
P 15  -6823.196512  18879.113287  17341.469336   -180.731234                    
V 15  -8699.013828 -20366.452571  18910.443480       .044268                    
P 16  25264.056268    522.800686   8661.155671   -127.969505                    
V 16  10006.614296   4654.707173 -29300.051038      -.032418                    
P 17 -14443.887890 -18275.351531 -12854.267605    177.836453                    
V 17  -2327.372080 -16396.712393  25485.607004       .009896                    
P 18  13050.866479  16187.384439  17026.799721    105.938336                    
V 18 -20832.186020  -3222.079312  18996.069929       .021294                    
P 19   9552.460946 -16529.240741  18330.915072    -85.135245                    
V 19   6753.086708  22468.392326  17065.046435      -.034055                    
P 20   5896.291883 -14876.754006 -21333.316531     49.448371                    
V 20  26301.684937   5500.947618   3521.004986      -.002281                    
P 21   4166.765653  17183.505679  20011.672498   -103.928352                    
V 21 -18311.027134  16948.789048 -11567.413475      -.027358                    
P 22  22511.549565  11831.157537   7997.609040    158.477235                    
V 22 -10452.925287    759.932312  28820.937495      -.008806                    
P 23   1359.160961 -23666.380196 -11630.133305    342.367362                    
V 23   6622.383349  13555.010801 -27140.040497      -.021077                    
P 24  18249.971436 -19056.177348  -1389.575104    340.828110                    
V 24   3704.546982   1169.510986  31587.627702       .033868                    
P 25   5582.828232  15862.335715 -20576.446126    -53.036818                    
V 25 -25699.507488  -4545.277656 -10495.085599      -.023985                    
P 26 -12978.293925   6796.730681  21546.705050    -55.456208                    
V 26  -6973.722786 -27855.015850   4872.192968      -.082058                    
P 27 -18433.522894  18802.558944   2972.673537    209.801466                    
V 27    112.088885  -3775.130596  32039.562828       .034889                    
P 28 -20270.215500 -13513.558234  11410.722883      5.742311                    
V 28  13612.150565   1841.423469  27287.204721       .017171                    
P 29   4954.629045  25951.137473  -2842.109449    165.160309                    
V 29  -3651.414990  -2845.655120 -31451.806533       .026053                    
P 30  19751.801165  12772.778571 -12806.541132    298.264220                    
V 30 -15709.045985   -641.360299 -25716.504714       .033670                    
P 31  19047.777892  -2336.407366 -18228.328640     10.943128                    
V 31 -15209.838587  17919.746970 -17800.124194       .037783                    
P 32  14424.005712  -9839.832752 -19582.090704   -136.417734                    
V 32  24004.089155   9267.494257  13194.065207      -.084440                    
EOF
